[{"OBJECT_NAME":"STARLINK-31346","OBJECT_ID":"2024-027N","EPOCH":"2026-03-09T23:25:16.023360","MEAN_MOTION":15.30208288,"ECCENTRICITY":0.00012728,"INCLINATION":53.1615,"RA_OF_ASC_NODE":306.0675,"ARG_OF_PERICENTER":116.8249,"MEAN_ANOMALY":243.2882,"EPHEMERIS_TYPE":0,"CLASSIFICATION_TYPE":"U","NORAD_CAT_ID":58943,"ELEMENT_SET_NO":999,"REV_AT_EPOCH":11740,"BSTAR":-7.9707385e-5,"MEAN_MOTION_DOT":-2.72e-5,"MEAN_MOTION_DDOT":0},{"OBJECT_NAME":"TEVEL2-3","OBJECT_ID":"2025-052J","EPOCH":"2026-03-09T15:29:22.754400","MEAN_MOTION":15.30377031,"ECCENTRICITY":0.0004761,"INCLINATION":97.3994,"RA_OF_ASC_NODE":324.7775,"ARG_OF_PERICENTER":105.7353,"MEAN_ANOMALY":254.4413,"EPHEMERIS_TYPE":0,"CLASSIFICATION_TYPE":"U","NORAD_CAT_ID":63218,"ELEMENT_SET_NO":999,"REV_AT_EPOCH":5485,"BSTAR":0.00069446,"MEAN_MOTION_DOT":0.00020365,"MEAN_MOTION_DDOT":0}]
